NORAD_CAT_ID,OBJECT_NAME,OBJECT_TYPE,EPOCH,MEAN_MOTION,ECCENTRICITY,INCLINATION,RA_OF_ASC_NODE,ARG_OF_PERICENTER,MEAN_ANOMALY,BSTAR,MEAN_MOTION_DOT,MEAN_MOTION_DDOT,TLE_LINE0,TLE_LINE1,TLE_LINE2,SEMIMAJOR_AXIS,PERIOD,APOGEE,PERIGEE,DECAYED
53257.0,STARLINK-4144,PAYLOAD,2023-10-26 12:26:48,15.0884427,0.0001714,53.2163,118.0201,74.4279,285.6902,-1.6241e-05,-5.47e-06,0.0,0 STARLINK-4144,1 53257U 22086R   23299.51861128 -.00000547  00000-0 -16241-4 0  9993,2 53257  53.2163 118.0201 0001714  74.4279 285.6902 15.08844270 70450,6917.867,95.437,540.918,538.547,0.0
53257.0,STARLINK-4144,PAYLOAD,2023-10-26 20:23:43,15.08847787,0.00015,53.2164,116.5333,92.6688,267.4475,4.5342e-05,4.34e-06,0.0,0 STARLINK-4144,1 53257U 22086R   23299.84980568  .00000434  00000-0  45342-4 0  9996,2 53257  53.2164 116.5333 0001500  92.6688 267.4475 15.08847787 70504,6917.857,95.437,540.759,538.684,0.0
53257.0,STARLINK-4144,PAYLOAD,2023-10-26 21:59:06,15.08849543,0.0001446,53.2164,116.2364,92.61,267.5058,5.0223e-05,5.12e-06,0.0,0 STARLINK-4144,1 53257U 22086R   23299.91604400  .00000512  00000-0  50223-4 0  9993,2 53257  53.2164 116.2364 0001446  92.6100 267.5058 15.08849543 70334,6917.851,95.437,540.717,538.716,0.0
53257.0,STARLINK-4144,PAYLOAD,2023-10-27 12:17:35,15.08835609,0.0001468,53.2165,113.5603,93.1877,266.9283,5.1489e-05,5.31e-06,0.0,0 STARLINK-4144,1 53257U 22086R   23300.51221244  .00000531  00000-0  51489-4 0  9999,2 53257  53.2165 113.5603 0001468  93.1877 266.9283 15.08835609 70423,6917.894,95.438,540.774,538.743,0.0
53257.0,STARLINK-4144,PAYLOAD,2023-10-27 21:49:53,15.08841938,0.0001449,53.2165,111.7761,91.1215,268.9944,9.8078e-05,1.273e-05,0.0,0 STARLINK-4144,1 53257U 22086R   23300.90964790  .00001273  00000-0  98078-4 0  9991,2 53257  53.2165 111.7761 0001449  91.1215 268.9944 15.08841938 70665,6917.874,95.437,540.742,538.737,0.0
53257.0,STARLINK-4144,PAYLOAD,2023-10-28 04:11:26,15.0883611,0.0001485,53.2164,110.5863,87.2398,272.8764,7.7835e-06,-1.64e-06,0.0,0 STARLINK-4144,1 53257U 22086R   23301.17461475 -.00000164  00000-0  77835-5 0  9991,2 53257  53.2164 110.5863 0001485  87.2398 272.8764 15.08836110 70527,6917.892,95.438,540.785,538.73,0.0
53257.0,STARLINK-4144,PAYLOAD,2023-10-28 21:40:41,15.08840033,0.0001417,53.2166,107.3152,87.152,272.9634,3.8378e-05,3.23e-06,0.0,0 STARLINK-4144,1 53257U 22086R   23301.90325308  .00000323  00000-0  38378-4 0  9990,2 53257  53.2166 107.3152 0001417  87.1520 272.9634 15.08840033 70813,6917.88,95.438,540.726,538.765,0.0
53257.0,STARLINK-4144,PAYLOAD,2023-10-29 04:02:13,15.08844077,0.000145,53.2167,106.1257,84.2479,275.8678,3.5371e-05,2.75e-06,0.0,0 STARLINK-4144,1 53257U 22086R   23302.16821097  .00000275  00000-0  35371-4 0  9991,2 53257  53.2167 106.1257 0001450  84.2479 275.8678 15.08844077 70671,6917.868,95.437,540.736,538.73,0.0
53257.0,STARLINK-4144,PAYLOAD,2023-10-29 19:56:04,15.08850525,0.000132,53.2177,103.1523,84.2941,275.8202,0.00014527,2.025e-05,0.0,0 STARLINK-4144,1 53257U 22086R   23302.83060466  .00002025  00000-0  14527-3 0  9994,2 53257  53.2177 103.1523 0001320  84.2941 275.8202 15.08850525 70954,6917.848,95.437,540.626,538.8,0.0
53257.0,STARLINK-4144,PAYLOAD,2023-10-30 03:53:00,15.0883738,0.0001679,53.2181,101.664,85.9503,274.1681,8.2421e-05,1.024e-05,0.0,0 STARLINK-4144,1 53257U 22086R   23303.16181548  .00001024  00000-0  82421-4 0  9993,2 53257  53.2181 101.6640 0001679  85.9503 274.1681 15.08837380 70824,6917.888,95.438,540.915,538.592,0.0
53257.0,STARLINK-4144,PAYLOAD,2023-10-31 10:05:20,15.08837602,0.0001482,53.2174,96.0148,89.1166,270.9996,3.5756e-05,2.81e-06,0.0,0 STARLINK-4144,1 53257U 22086R   23304.42037970  .00000281  00000-0  35756-4 0  9995,2 53257  53.2174  96.0148 0001482  89.1166 270.9996 15.08837602 71011,6917.888,95.438,540.778,538.727,0.0
53257.0,STARLINK-4144,PAYLOAD,2023-10-31 14:51:30,15.08839845,0.0001366,53.2173,95.1242,90.6911,269.4238,4.1596e-05,3.74e-06,0.0,0 STARLINK-4144,1 53257U 22086R   23304.61909800  .00000374  00000-0  41596-4 0  9998,2 53257  53.2173  95.1242 0001366  90.6911 269.4238 15.08839845 71227,6917.881,95.438,540.691,538.801,0.0
53257.0,STARLINK-4144,PAYLOAD,2023-10-31 16:26:53,15.08843198,0.0001421,53.2169,94.8265,88.4794,271.6361,3.4589e-05,2.63e-06,0.0,0 STARLINK-4144,1 53257U 22086R   23304.68533624  .00000263  00000-0  34589-4 0  9993,2 53257  53.2169  94.8265 0001421  88.4794 271.6361 15.08843198 71238,6917.871,95.437,540.719,538.753,0.0
53257.0,STARLINK-4144,PAYLOAD,2023-11-01 03:34:34,15.08844277,0.0001387,53.2173,92.7449,100.2992,259.8157,6.5137e-05,7.49e-06,0.0,0 STARLINK-4144,1 53257U 22086R   23305.14901400  .00000749  00000-0  65137-4 0  9998,2 53257  53.2173  92.7449 0001387 100.2992 259.8157 15.08844277 71126,6917.867,95.437,540.692,538.773,0.0
53257.0,STARLINK-4144,PAYLOAD,2023-11-01 14:42:16,15.08841767,0.0001412,53.2165,90.6631,93.5343,266.5811,0.00014998,2.1e-05,0.0,0 STARLINK-4144,1 53257U 22086R   23305.61269483  .00002100  00000-0  14998-3 0  9999,2 53257  53.2165  90.6631 0001412  93.5343 266.5811 15.08841767 71370,6917.875,95.437,540.717,538.763,0.0
53257.0,STARLINK-4144,PAYLOAD,2023-11-01 16:17:39,15.08842649,0.0001395,53.2165,90.3653,95.8634,264.2517,0.00016935,2.408e-05,0.0,0 STARLINK-4144,1 53257U 22086R   23305.67893389  .00002408  00000-0  16935-3 0  9997,2 53257  53.2165  90.3653 0001395  95.8634 264.2517 15.08842649 71388,6917.872,95.437,540.702,538.772,0.0
53257.0,STARLINK-4144,PAYLOAD,2023-11-02 12:57:40,15.08842563,0.000144,53.2158,86.4992,93.8032,266.3125,1.8531e-05,7e-08,0.0,0 STARLINK-4144,1 53257U 22086R   23306.54005613  .00000007  00000-0  18531-4 0  9997,2 53257  53.2158  86.4992 0001440  93.8032 266.3125 15.08842563 71331,6917.873,95.437,540.734,538.741,0.0
53257.0,STARLINK-4144,PAYLOAD,2023-11-02 14:33:04,15.08840662,0.0001359,53.2165,86.2017,94.1885,265.9263,5.621e-05,6.07e-06,0.0,0 STARLINK-4144,1 53257U 22086R   23306.60629720  .00000607  00000-0  56210-4 0  9997,2 53257  53.2165  86.2017 0001359  94.1885 265.9263 15.08840662 71521,6917.878,95.438,540.684,538.803,0.0
53257.0,STARLINK-4144,PAYLOAD,2023-11-02 19:19:12,15.08847147,0.0001468,53.2169,85.3086,107.3618,252.7535,0.00010538,1.39e-05,0.0,0 STARLINK-4144,1 53257U 22086R   23306.80501060  .00001390  00000-0  10538-3 0  9997,2 53257  53.2169  85.3086 0001468 107.3618 252.7535 15.08847147 71557,6917.859,95.437,540.739,538.708,0.0
53257.0,STARLINK-4144,PAYLOAD,2023-11-03 14:23:51,15.08841922,0.0001653,53.2175,81.739,98.798,261.3199,-3.7883e-06,-3.48e-06,0.0,0 STARLINK-4144,1 53257U 22086R   23307.59989884 -.00000348  00000-0 -37883-5 0  9996,2 53257  53.2175  81.7390 0001653  98.7980 261.3199 15.08841922 71673,6917.875,95.437,540.883,538.596,0.0
53257.0,STARLINK-4144,PAYLOAD,2023-11-03 19:10:00,15.08845277,0.0001354,53.2177,80.8485,82.2589,277.8556,2.8402e-05,1.64e-06,0.0,0 STARLINK-4144,1 53257U 22086R   23307.79861514  .00000164  00000-0  28402-4 0  9997,2 53257  53.2177  80.8485 0001354  82.2589 277.8556 15.08845277 71521,6917.864,95.437,540.666,538.793,0.0
53257.0,STARLINK-4144,PAYLOAD,2023-11-04 09:28:29,15.08834656,0.00014,53.2167,78.1725,101.3884,258.7265,2.9671e-05,1.84e-06,0.0,0 STARLINK-4144,1 53257U 22086R   23308.39478137  .00000184  00000-0  29671-4 0  9990,2 53257  53.2167  78.1725 0001400 101.3884 258.7265 15.08834656 71614,6917.897,95.438,540.73,538.793,0.0
53257.0,STARLINK-4144,PAYLOAD,2023-11-04 14:14:38,15.08838788,0.0001369,53.2169,77.2815,92.2044,267.9105,8.0791e-05,9.98e-06,0.0,0 STARLINK-4144,1 53257U 22086R   23308.59349905  .00000998  00000-0  80791-4 0  9995,2 53257  53.2169  77.2815 0001369  92.2044 267.9105 15.08838788 71824,6917.884,95.438,540.696,538.802,0.0
53257.0,STARLINK-4144,PAYLOAD,2023-11-04 15:50:00,15.08848123,0.0001284,53.2174,76.9849,81.8828,278.231,7.419e-05,8.93e-06,0.0,0 STARLINK-4144,1 53257U 22086R   23308.65973348  .00000893  00000-0  74190-4 0  9996,2 53257  53.2174  76.9849 0001284  81.8828 278.2310 15.08848123 71651,6917.856,95.437,540.609,538.832,0.0
53257.0,STARLINK-4144,PAYLOAD,2023-11-05 10:54:38,15.0884543,0.0001299,53.218,73.4161,79.9511,280.1628,0.00010128,1.325e-05,0.0,0 STARLINK-4144,1 53257U 22086R   23309.45461597  .00001325  00000-0  10128-3 0  9994,2 53257  53.2180  73.4161 0001299  79.9511 280.1628 15.08845430 71775,6917.864,95.437,540.627,538.83,0.0
53257.0,STARLINK-4144,PAYLOAD,2023-11-05 14:05:24,15.08851359,0.0001244,53.2175,72.8194,94.1631,265.9503,0.00014224,1.977e-05,0.0,0 STARLINK-4144,1 53257U 22086R   23309.58708918  .00001977  00000-0  14224-3 0  9993,2 53257  53.2175  72.8194 0001244  94.1631 265.9503 15.08851359 71972,6917.846,95.437,540.571,538.85,0.0
53257.0,STARLINK-4144,PAYLOAD,2023-11-05 15:40:47,15.08859351,0.0001206,53.2175,72.5225,77.7765,282.3362,0.00028751,4.293e-05,0.0,0 STARLINK-4144,1 53257U 22086R   23309.65332582  .00004293  00000-0  28751-3 0  9995,2 53257  53.2175  72.5225 0001206  77.7765 282.3362 15.08859351 71805,6917.821,95.436,540.521,538.852,0.0
53257.0,STARLINK-4144,PAYLOAD,2023-11-06 10:45:25,15.08838246,9.11e-05,53.2166,68.9565,70.9431,289.166,-4.8989e-06,-3.66e-06,0.0,0 STARLINK-4144,1 53257U 22086R   23310.44821050 -.00000366  00000-0 -48989-5 0  9993,2 53257  53.2166  68.9565 0000911  70.9431 289.1660 15.08838246 71927,6917.886,95.438,540.381,539.121,0.0
53257.0,STARLINK-4144,PAYLOAD,2023-11-06 13:56:14,15.08790746,0.0001563,53.217,68.3614,59.1725,300.9421,-0.00076167,-0.00012373,0.0,0 STARLINK-4144,1 53257U 22086R   23310.58071854 -.00012373  00000-0 -76167-3 0  9995,2 53257  53.2170  68.3614 0001563  59.1725 300.9421 15.08790746 72122,6918.031,95.441,540.977,538.815,0.0
53257.0,STARLINK-4144,PAYLOAD,2023-11-07 01:03:56,15.08796074,0.0001362,53.2181,66.2806,88.6342,271.4806,-0.00055214,-9.054e-05,0.0,0 STARLINK-4144,1 53257U 22086R   23311.04440508 -.00009054  00000-0 -55214-3 0  9995,2 53257  53.2181  66.2806 0001362  88.6342 271.4806 15.08796074 72010,6918.015,95.44,540.822,538.937,0.0
